     2.100          NAVIGATION                              RINEX VERSION / TYPE
fic2rin                                 12/15/2016 00:05:42 PGM / RUN BY / DATE
                                                            END OF HEADER
15 16 12 14  2  0  0.0 -.337375793606D-03 -.113686837722D-11  .000000000000D+00
     .850000000000D+02 -.158125000000D+02  .525057585042D-08 -.105065397068D+01
    -.823289155960D-06  .892163265962D-02  .960752367973D-05  .515371203041D+04
     .266400000000D+06  .221654772758D-06  .251259310027D+01  .298023223877D-07
     .929828051116D+00  .172968750000D+03  .548421038040D+00 -.826141554969D-08
    -.618954353362D-09  .100000000000D+01  .192700000000D+04  .000000000000D+00
     .240000000000D+01  .000000000000D+00 -.107102096081D-07  .850000000000D+02
     .259206000000D+06  .400000000000D+01
17 16 12 14  2  0  0.0 -.197055749595D-03  .795807864051D-12  .000000000000D+00
     .124000000000D+03 -.139812500000D+03  .403016787267D-08 -.343131151304D+00
    -.732764601707D-05  .115355063463D-01  .811927020550D-05  .515355503464D+04
     .266400000000D+06 -.912696123123D-07 -.515890598308D+00  .113621354103D-06
     .978701120293D+00  .235375000000D+03 -.189478103303D+01 -.810605193531D-08
    -.311441544219D-09  .100000000000D+01  .192700000000D+04  .000000000000D+00
     .240000000000D+01  .000000000000D+00 -.107102096081D-07  .124000000000D+03
     .259206000000D+06  .400000000000D+01
18 16 12 14  2  0  0.0  .583819113672D-03  .295585778076D-11  .000000000000D+00
     .430000000000D+02  .928125000000D+01  .599346393754D-08  .126819072293D+01
     .316649675369D-06  .173437126214D-01  .472739338875D-05  .515371740723D+04
     .266400000000D+06 -.365078449249D-06  .149212640759D+01 -.173225998878D-06
     .924708560520D+00  .271843750000D+03 -.184557926372D+01 -.894001524466D-08
     .157863718515D-09  .100000000000D+01  .192700000000D+04  .000000000000D+00
     .240000000000D+01  .000000000000D+00 -.111758708954D-07  .430000000000D+02
     .259206000000D+06  .400000000000D+01
19 16 12 14  2  0  0.0 -.518114306033D-03  .795807864051D-12  .000000000000D+00
     .430000000000D+02 -.155812500000D+03  .392444918335D-08  .285199027168D+01
    -.819005072117D-05  .102559057996D-01  .836327672005D-05  .515364933205D+04
     .266400000000D+06 -.223517417908D-07 -.467664699220D+00 -.149011611938D-06
     .975915196157D+00  .224156250000D+03  .895581020384D+00 -.769496338325D-08
    -.343942898031D-09  .100000000000D+01  .192700000000D+04  .000000000000D+00
     .240000000000D+01  .000000000000D+00 -.149011611938D-07  .430000000000D+02
     .259206000000D+06  .400000000000D+01
20 16 12 14  2  0  0.0  .450647436082D-03  .181898940355D-11  .000000000000D+00
     .100000000000D+02  .160312500000D+02  .580524181162D-08 -.114958504195D+01
     .107474625111D-05  .475556880701D-02  .450387597084D-05  .515359788322D+04
     .266400000000D+06 -.428408384323D-07  .144055681905D+01  .726431608200D-07
     .926041527587D+00  .274312500000D+03  .151194746709D+01 -.872322050001D-08
     .291440711104D-09  .100000000000D+01  .192700000000D+04  .000000000000D+00
     .240000000000D+01  .000000000000D+00 -.838190317154D-08  .100000000000D+02
     .259206000000D+06  .400000000000D+01
21 16 12 14  2  0  0.0 -.528838019818D-03  .113686837722D-11  .000000000000D+00
     .540000000000D+02 -.305312500000D+02  .464447917549D-08  .219445675870D+01
    -.172108411789D-05  .235094361706D-01  .126697123051D-04  .515377831650D+04
     .266400000000D+06  .303611159325D-06  .450849842746D+00 -.236555933952D-06
     .938382060819D+00  .116500000000D+03 -.173386997460D+01 -.759745932182D-08
     .654312969047D-09  .100000000000D+01  .192700000000D+04  .000000000000D+00
     .240000000000D+01  .000000000000D+00 -.977888703346D-08  .540000000000D+02
     .259206000000D+06  .400000000000D+01
22 16 12 14  2  0  0.0  .162683427334D-03 -.110276232590D-10  .000000000000D+00
     .150000000000D+02  .165937500000D+02  .595024785171D-08 -.789683373757D+00
     .101514160633D-05  .730208808091D-02  .458210706711D-05  .515363191223D+04
     .266400000000D+06 -.577419996262D-07  .149234588919D+01  .121071934700D-06
     .922686588297D+00  .271906250000D+03 -.183570690735D+01 -.884393981416D-08
     .265725354242D-09  .100000000000D+01  .192700000000D+04  .000000000000D+00
     .240000000000D+01  .000000000000D+00 -.176951289177D-07  .150000000000D+02
     .259206000000D+06  .400000000000D+01
23 16 12 14  2  0  0.0 -.199662521482D-03 -.113686837722D-11  .000000000000D+00
     .370000000000D+02 -.153125000000D+02  .482341520032D-08 -.148953562649D+01
    -.929459929466D-06  .111522905063D-01  .102315098047D-04  .515356915283D+04
     .266400000000D+06  .171363353729D-06  .257344177777D+01 -.160187482834D-06
     .945121679060D+00  .168875000000D+03 -.252111093055D+01 -.797247494273D-08
    -.602882255323D-09  .100000000000D+01  .192700000000D+04  .000000000000D+00
     .240000000000D+01  .000000000000D+00 -.200234353542D-07  .370000000000D+02
     .259206000000D+06  .400000000000D+01
24 16 12 14  2  0  0.0 -.275070779026D-04 -.568434188608D-12  .000000000000D+00
     .380000000000D+02  .150843750000D+03  .463555023213D-08 -.211483321001D+01
     .766664743423D-05  .516641896684D-02  .934302806854D-05  .515371657944D+04
     .266400000000D+06  .186264514923D-07 -.268573391100D+01 -.577419996262D-07
     .947590669309D+00  .194406250000D+03  .412366243681D+00 -.803212028434D-08
     .242152943785D-09  .100000000000D+01  .192700000000D+04  .000000000000D+00
     .240000000000D+01  .000000000000D+00  .232830643654D-08  .380000000000D+02
     .259206000000D+06  .400000000000D+01
25 16 12 14  2  0  0.0 -.299280043691D-03 -.682121026330D-11  .000000000000D+00
     .330000000000D+02  .221875000000D+02  .459269130403D-08  .212072856945D+01
     .108964741230D-05  .579157157335D-02 -.894069671631D-06  .515365893555D+04
     .266400000000D+06 -.182539224625D-06 -.160761241869D+01 -.137835741043D-06
     .977679991770D+00  .405125000000D+03  .753466418501D+00 -.849392523465D-08
     .775032283206D-10  .100000000000D+01  .192700000000D+04  .000000000000D+00
     .240000000000D+01  .000000000000D+00  .558793544769D-08  .330000000000D+02
     .259206000000D+06  .400000000000D+01
27 16 12 14  2  0  0.0  .178938731551D-03  .545696821064D-11  .000000000000D+00
     .550000000000D+02 -.176406250000D+03  .412552898770D-08 -.188414926272D+00
    -.928156077862D-05  .404160900507D-02  .744313001633D-05  .515366496468D+04
     .266400000000D+06  .726431608200D-07 -.566942637151D+00  .707805156708D-07
     .973592752263D+00  .241281250000D+03  .295256504699D+00 -.807676500111D-08
    -.456090426568D-09  .100000000000D+01  .192700000000D+04  .000000000000D+00
     .240000000000D+01  .000000000000D+00  .139698386192D-08  .550000000000D+02
     .259206000000D+06  .400000000000D+01
28 16 12 14  2  0  0.0  .574200879782D-03  .295585778076D-11  .000000000000D+00
     .440000000000D+02  .675000000000D+01  .445268547222D-08  .603572234783D+00
     .253319740295D-06  .201543209841D-01  .331550836563D-06  .515363343620D+04
     .266400000000D+06 -.208616256714D-06 -.153070096944D+01 -.391155481339D-07
     .988854307191D+00  .393468750000D+03 -.159250066364D+01 -.873536386297D-08
    -.953611150304D-10  .100000000000D+01  .192700000000D+04  .000000000000D+00
     .240000000000D+01  .000000000000D+00 -.111758708954D-07  .440000000000D+02
     .259206000000D+06  .400000000000D+01
29 16 12 14  2  0  0.0  .638881698251D-03 -.193267624127D-11  .000000000000D+00
     .720000000000D+02 -.167843750000D+03  .385230332104D-08  .198568985508D+01
    -.878050923347D-05  .536357751116D-03  .896491110325D-05  .515371244812D+04
     .266400000000D+06  .000000000000D+00 -.505961354910D+00  .409781932831D-07
     .979755003551D+00  .214781250000D+03 -.168902617095D+00 -.782068290569D-08
    -.370372570361D-09  .100000000000D+01  .192700000000D+04  .000000000000D+00
     .340000000000D+01  .000000000000D+00 -.102445483208D-07  .720000000000D+02
     .259206000000D+06  .400000000000D+01
30 16 12 14  2  0  0.0  .159060582519D-03  .682121026330D-12  .000000000000D+00
     .770000000000D+02  .152687500000D+03  .460876340207D-08 -.304352381891D+01
     .802613794804D-05  .237189314794D-02  .903382897377D-05  .515374560928D+04
     .266400000000D+06 -.111758708954D-07 -.259386059437D+01 -.931322574615D-08
     .950247874210D+00  .202500000000D+03  .313325597353D+01 -.805533553706D-08
     .263225250103D-09  .100000000000D+01  .192700000000D+04  .000000000000D+00
     .240000000000D+01  .000000000000D+00  .372529029846D-08  .770000000000D+02
     .259206000000D+06  .400000000000D+01
31 16 12 14  2  0  0.0  .231220852584D-03 -.216004991671D-11  .000000000000D+00
     .880000000000D+02  .182750000000D+03  .416553065393D-08  .308350690023D+01
     .946596264839D-05  .851986685302D-02  .101495534182D-04  .515362267685D+04
     .266400000000D+06 -.106170773506D-06 -.262491210293D+01  .707805156708D-07
     .969289038916D+00  .187468750000D+03 -.335093826711D+00 -.778425281680D-08
     .269296931584D-09  .100000000000D+01  .192700000000D+04  .000000000000D+00
     .240000000000D+01  .000000000000D+00 -.135041773319D-07  .880000000000D+02
     .259206000000D+06  .400000000000D+01
32 16 12 14  2  0  0.0 -.239479355514D-03 -.158024704433D-10  .000000000000D+00
     .850000000000D+02 -.325000000000D+01  .454733227178D-08  .526392884274D+00
    -.273808836937D-06  .613100826740D-03  .110734254122D-04  .515367544746D+04
     .266400000000D+06  .186264514923D-07  .257245486836D+01 -.409781932831D-07
     .958767018186D+00  .166218750000D+03 -.268865352391D+01 -.789140013706D-08
    -.727887462292D-09  .100000000000D+01  .192700000000D+04  .000000000000D+00
     .340000000000D+01  .000000000000D+00  .465661287308D-09  .850000000000D+02
     .259206000000D+06  .400000000000D+01
